ONEWEB-0018             
1 45434U 20020L   24157.46070355 -.00000070  00000+0 -23188-3 0  9996
2 45434  87.8965 168.6469 0002143  91.7631 268.3742 13.11419479205416
ONEWEB-0083             
1 45435U 20020M   24157.45051912 -.00000755  00000+0 -21653-2 0  9998
2 45435  87.8963 168.6301 0002054  89.5622 270.5741 13.11417825205457
ONEWEB-0095             
1 45436U 20020N   24157.44217584 -.00000502  00000+0 -14533-2 0  9996
2 45436  87.8961 168.6666 0001264  75.3532 284.7736 13.11414597205459
ONEWEB-0092             
1 45437U 20020P   24157.48530034  .00000676  00000+0  18714-2 0  9994
2 45437  87.8963 168.6398 0001675  91.5845 268.5474 13.11415767205579
ONEWEB-0085             
1 45438U 20020Q   24157.44374177 -.00000501  00000+0 -14486-2 0  9996
2 45438  87.8966 168.6548 0002128  93.0296 267.1075 13.11418179205450
ONEWEB-0096             
1 45439U 20020R   24157.45222501 -.00000387  00000+0 -11274-2 0  9995
2 45439  87.8963 168.6242 0002207  94.7976 265.3404 13.11419730205449
ONEWEB-0037             
1 45440U 20020S   24157.50986071 -.00000325  00000+0 -95257-3 0  9998
2 45440  87.8958 168.5976 0001824  96.9750 263.1585 13.11416244205483
ONEWEB-0042             
1 45441U 20020T   24157.44189731 -.00000489  00000+0 -14167-2 0  9991
2 45441  87.8962 168.6405 0002081  93.6953 266.4413 13.11414266205446
